{"type": "FeatureCollection", "features": [ {"type": "Feature", "properties": {"norad_id": 41774, "name": "SKYSAT-C3", "group": "resource", "lat": 61.70242905033005, "lon": -148.31683243646577, "alt_km": 426.4810078268729, "timestamp": "2025-12-10T18:56:59.719345+00:00", "meta": {"OBJECT_NAME": "SKYSAT-C3", "OBJECT_ID": "2016-058E", "EPOCH": "2025-12-10T01:20:10.885056", "MEAN_MOTION": 15.44244525, "ECCENTRICITY": 0.00015989, "INCLINATION": 96.93, "RA_OF_ASC_NODE": 17.9267, "ARG_OF_PERICENTER": 105.6106, "MEAN_ANOMALY": 254.5321, "EPHEMERIS_TYPE": 0, "CLASSIFICATION_TYPE": "U", "NORAD_CAT_ID": 41774, "ELEMENT_SET_NO": 999, "REV_AT_EPOCH": 51684, "BSTAR": 0.00053806643, "MEAN_MOTION_DOT": 0.0002469, "MEAN_MOTION_DDOT": 0}, "tle": {"line1": "1 41774U 16058E   25344.05568154  .00024690  00000+0  53807-3 0  9991", "line2": "2 41774  96.9300  17.9267 0001598 105.6106 254.5321 15.44244525516848"}}, "geometry": {"type": "Point", "coordinates": [-148.31683243646577, 61.70242905033005]}}, {"type": "Feature", "properties": {"norad_id": 41785, "name": "ALSAT 1B", "group": "resource", "lat": 56.68388969139, "lon": -171.32933167087762, "alt_km": 641.7719228403275, "timestamp": "2025-12-10T18:56:59.719355+00:00", "meta": {"OBJECT_NAME": "ALSAT 1B", "OBJECT_ID": "2016-059C", "EPOCH": "2025-12-10T11:52:15.331296", "MEAN_MOTION": 14.72072332, "ECCENTRICITY": 0.0010641, "INCLINATION": 97.7813, "RA_OF_ASC_NODE": 356.3808, "ARG_OF_PERICENTER": 109.4742, "MEAN_ANOMALY": 250.7617, "EPHEMERIS_TYPE": 0, "CLASSIFICATION_TYPE": "U", "NORAD_CAT_ID": 41785, "ELEMENT_SET_NO": 999, "REV_AT_EPOCH": 49281, "BSTAR": 0.00014323, "MEAN_MOTION_DOT": 8.54e-06, "MEAN_MOTION_DDOT": 0}, "tle": {"line1": "1 41785U 16059C   25344.49462189  .00000854  00000+0  14323-3 0  9999", "line2": "2 41785  97.7813 356.3808 0010641 109.4742 250.7617 14.72072332492817"}}, "geometry": {"type": "Point", "coordinates": [-171.32933167087762, 56.68388969139]}}, {"type": "Feature", "properties": {"norad_id": 41787, "name": "PATHFINDER 1", "group": "resource", "lat": -53.84147308920751, "lon": 156.8227609376733, "alt_km": 694.5123795357486, "timestamp": "2025-12-10T18:56:59.719365+00:00", "meta": {"OBJECT_NAME": "PATHFINDER 1", "OBJECT_ID": "2016-059E", "EPOCH": "2025-12-10T11:20:24.890784", "MEAN_MOTION": 14.67314596, "ECCENTRICITY": 0.0030057, "INCLINATION": 97.8139, "RA_OF_ASC_NODE": 347.3513, "ARG_OF_PERICENTER": 88.0496, "MEAN_ANOMALY": 272.4151, "EPHEMERIS_TYPE": 0, "CLASSIFICATION_TYPE": "U", "NORAD_CAT_ID": 41787, "ELEMENT_SET_NO": 999, "REV_AT_EPOCH": 49203, "BSTAR": 0.00023092, "MEAN_MOTION_DOT": 1.265e-05, "MEAN_MOTION_DDOT": 0}, "tle": {"line1": "1 41787U 16059E   25344.47251031  .00001265  00000+0  23092-3 0  9991", "line2": "2 41787  97.8139 347.3513 0030057  88.0496 272.4151 14.67314596492038"}}, "geometry": {"type": "Point", "coordinates": [156.8227609376733, -53.84147308920751]}}, {"type": "Feature", "properties": {"norad_id": 41790, "name": "SCATSAT 1", "group": "resource", "lat": 33.94951186031038, "lon": -133.03069646703685, "alt_km": 591.9783984692876, "timestamp": "2025-12-10T18:56:59.719376+00:00", "meta": {"OBJECT_NAME": "SCATSAT 1", "OBJECT_ID": "2016-059H", "EPOCH": "2025-12-10T03:40:56.846208", "MEAN_MOTION": 14.78922317, "ECCENTRICITY": 0.00561475, "INCLINATION": 98.1464, "RA_OF_ASC_NODE": 40.7913, "ARG_OF_PERICENTER": 136.1603, "MEAN_ANOMALY": 224.4085, "EPHEMERIS_TYPE": 0, "CLASSIFICATION_TYPE": "U", "NORAD_CAT_ID": 41790, "ELEMENT_SET_NO": 999, "REV_AT_EPOCH": 7364, "BSTAR": 0.00031975556, "MEAN_MOTION_DOT": 2.364e-05, "MEAN_MOTION_DDOT": 0}, "tle": {"line1": "1 41790U 16059H   25344.15343572  .00002364  00000+0  31976-3 0  9993", "line2": "2 41790  98.1464  40.7913 0056147 136.1603 224.4085 14.78922317 73641"}}, "geometry": {"type": "Point", "coordinates": [-133.03069646703685, 33.94951186031038]}}, {"type": "Feature", "properties": {"norad_id": 41875, "name": "GOKTURK 1A", "group": "resource", "lat": -16.676890164998525, "lon": -120.36136203734469, "alt_km": 689.1873644658308, "timestamp": "2025-12-10T18:56:59.719385+00:00", "meta": {"OBJECT_NAME": "GOKTURK 1A", "OBJECT_ID": "2016-073A", "EPOCH": "2025-12-10T12:27:35.991648", "MEAN_MOTION": 14.6277476, "ECCENTRICITY": 0.0001252, "INCLINATION": 98.1425, "RA_OF_ASC_NODE": 236.9137, "ARG_OF_PERICENTER": 79.1959, "MEAN_ANOMALY": 280.9383, "EPHEMERIS_TYPE": 0, "CLASSIFICATION_TYPE": "U", "NORAD_CAT_ID": 41875, "ELEMENT_SET_NO": 999, "REV_AT_EPOCH": 48124, "BSTAR": 0.00013257, "MEAN_MOTION_DOT": 6.29e-06, "MEAN_MOTION_DDOT": 0}, "tle": {"line1": "1 41875U 16073A   25344.51916657  .00000629  00000+0  13257-3 0  9997", "line2": "2 41875  98.1425 236.9137 0001252  79.1959 280.9383 14.62774760481243"}}, "geometry": {"type": "Point", "coordinates": [-120.36136203734469, -16.676890164998525]}}, {"type": "Feature", "properties": {"norad_id": 41877, "name": "RESOURCESAT-2A", "group": "resource", "lat": -38.75434215723437, "lon": 61.77906000190445, "alt_km": 825.879555469327, "timestamp": "2025-12-10T18:56:59.719396+00:00", "meta": {"OBJECT_NAME": "RESOURCESAT-2A", "OBJECT_ID": "2016-074A", "EPOCH": "2025-12-10T12:22:39.561888", "MEAN_MOTION": 14.21598959, "ECCENTRICITY": 0.000112, "INCLINATION": 98.7754, "RA_OF_ASC_NODE": 54.3843, "ARG_OF_PERICENTER": 267.4177, "MEAN_ANOMALY": 92.6872, "EPHEMERIS_TYPE": 0, "CLASSIFICATION_TYPE": "U", "NORAD_CAT_ID": 41877, "ELEMENT_SET_NO": 999, "REV_AT_EPOCH": 46749, "BSTAR": 0.00022396, "MEAN_MOTION_DOT": 4.47e-06, "MEAN_MOTION_DDOT": 0}, "tle": {"line1": "1 41877U 16074A   25344.51573567  .00000447  00000+0  22396-3 0  9991", "line2": "2 41877  98.7754  54.3843 0001120 267.4177  92.6872 14.21598959467491"}}, "geometry": {"type": "Point", "coordinates": [61.77906000190445, -38.75434215723437]}}, {"type": "Feature", "properties": {"norad_id": 41948, "name": "CARTOSAT-2D", "group": "resource", "lat": 2.615031728605584, "lon": 41.974671611051214, "alt_km": 513.8539976180709, "timestamp": "2025-12-10T18:56:59.719406+00:00", "meta": {"OBJECT_NAME": "CARTOSAT-2D", "OBJECT_ID": "2017-008A", "EPOCH": "2025-12-10T11:02:04.244640", "MEAN_MOTION": 15.19220055, "ECCENTRICITY": 0.000441, "INCLINATION": 97.4385, "RA_OF_ASC_NODE": 41.9918, "ARG_OF_PERICENTER": 168.8241, "MEAN_ANOMALY": 191.3092, "EPHEMERIS_TYPE": 0, "CLASSIFICATION_TYPE": "U", "NORAD_CAT_ID": 41948, "ELEMENT_SET_NO": 999, "REV_AT_EPOCH": 48892, "BSTAR": 0.00038812, "MEAN_MOTION_DOT": 8.11e-05, "MEAN_MOTION_DDOT": 0}, "tle": {"line1": "1 41948U 17008A   25344.45977135  .00008110  00000+0  38812-3 0  9995", "line2": "2 41948  97.4385  41.9918 0004410 168.8241 191.3092 15.19220055488921"}}, "geometry": {"type": "Point", "coordinates": [41.974671611051214, 2.615031728605584]}}, {"type": "Feature", "properties": {"norad_id": 42063, "name": "SENTINEL-2B", "group": "resource", "lat": -44.23651630347639, "lon": -131.18226202812568, "alt_km": 796.2324123287517, "timestamp": "2025-12-10T18:56:59.719416+00:00", "meta": {"OBJECT_NAME": "SENTINEL-2B", "OBJECT_ID": "2017-013A", "EPOCH": "2025-12-10T11:11:21.668064", "MEAN_MOTION": 14.3081543, "ECCENTRICITY": 0.000116, "INCLINATION": 98.5715, "RA_OF_ASC_NODE": 56.9438, "ARG_OF_PERICENTER": 92.8897, "MEAN_ANOMALY": 267.2418, "EPHEMERIS_TYPE": 0, "CLASSIFICATION_TYPE": "U", "NORAD_CAT_ID": 42063, "ELEMENT_SET_NO": 999, "REV_AT_EPOCH": 45765, "BSTAR": 0.00020392, "MEAN_MOTION_DOT": 4.91e-06, "MEAN_MOTION_DDOT": 0}, "tle": {"line1": "1 42063U 17013A   25344.46622301  .00000491  00000+0  20392-3 0  9991", "line2": "2 42063  98.5715  56.9438 0001160  92.8897 267.2418 14.30815430457654"}}, "geometry": {"type": "Point", "coordinates": [-131.18226202812568, -44.23651630347639]}}, {"type": "Feature", "properties": {"norad_id": 42767, "name": "CARTOSAT-2E", "group": "resource", "lat": -81.65035875945816, "lon": 105.55806017776045, "alt_km": 513.9682824080801, "timestamp": "2025-12-10T18:56:59.719425+00:00", "meta": {"OBJECT_NAME": "CARTOSAT-2E", "OBJECT_ID": "2017-036C", "EPOCH": "2025-12-10T09:50:41.545248", "MEAN_MOTION": 15.19285601, "ECCENTRICITY": 0.0002279, "INCLINATION": 97.4555, "RA_OF_ASC_NODE": 42.0272, "ARG_OF_PERICENTER": 246.3889, "MEAN_ANOMALY": 113.7106, "EPHEMERIS_TYPE": 0, "CLASSIFICATION_TYPE": "U", "NORAD_CAT_ID": 42767, "ELEMENT_SET_NO": 999, "REV_AT_EPOCH": 46948, "BSTAR": 0.00041954, "MEAN_MOTION_DOT": 8.788e-05, "MEAN_MOTION_DDOT": 0}, "tle": {"line1": "1 42767U 17036C   25344.41020307  .00008788  00000+0  41954-3 0  9994", "line2": "2 42767  97.4555  42.0272 0002279 246.3889 113.7106 15.19285601469488"}}, "geometry": {"type": "Point", "coordinates": [105.55806017776045, -81.65035875945816]}}, {"type": "Feature", "properties": {"norad_id": 42920, "name": "FORMOSAT-5", "group": "resource", "lat": 80.57178066569449, "lon": -1.6903088728993065, "alt_km": 720.6116225597052, "timestamp": "2025-12-10T18:56:59.719436+00:00", "meta": {"OBJECT_NAME": "FORMOSAT-5", "OBJECT_ID": "2017-049A", "EPOCH": "2025-12-10T11:56:15.374688", "MEAN_MOTION": 14.51003378, "ECCENTRICITY": 0.0009966, "INCLINATION": 98.2454, "RA_OF_ASC_NODE": 58.8609, "ARG_OF_PERICENTER": 303.17, "MEAN_ANOMALY": 56.8538, "EPHEMERIS_TYPE": 0, "CLASSIFICATION_TYPE": "U", "NORAD_CAT_ID": 42920, "ELEMENT_SET_NO": 999, "REV_AT_EPOCH": 43931, "BSTAR": 0.00011567, "MEAN_MOTION_DOT": 4.14e-06, "MEAN_MOTION_DDOT": 0}, "tle": {"line1": "1 42920U 17049A   25344.49740017  .00000414  00000+0  11567-3 0  9999", "line2": "2 42920  98.2454  58.8609 0009966 303.1700  56.8538 14.51003378439318"}}, "geometry": {"type": "Point", "coordinates": [-1.6903088728993065, 80.57178066569449]}}]}